EUTELSAT QUANTUM        
1 49056U 21069B   25217.55411554  .00000133  00000+0  00000+0 0  9994
2 49056   0.0637 272.7238 0002042 234.9146  53.8988  1.00272161 14769
EUTELSAT KONNECT VHTS   
1 53765U 22110A   25217.33103050  .00000025  00000+0  00000+0 0  9999
2 53765   0.0564  98.5550 0002852  28.1444 309.3242  1.00269203  3655
EUTELSAT HOTBIRD 13F    
1 54048U 22134A   25217.54709552  .00000095  00000+0  00000+0 0  9999
2 54048   0.0657 277.7408 0001947  92.2970 154.2722  1.00270715 10216
EUTELSAT HOTBIRD 13G    
1 54225U 22146A   25217.42891898  .00000095  00000+0  00000+0 0  9991
2 54225   0.0590 248.8842 0002085 284.8943 307.8623  1.00271499  4302
EUTELSAT 10B            
1 54259U 22157A   25217.54648885  .00000076  00000+0  00000+0 0  9998
2 54259   0.0508  95.3978 0001617  26.3722  39.3050  1.00272000  9852
EUTELSAT 36D            
1 59346U 24059A   25217.55168888  .00000163  00000+0  00000+0 0  9991
2 59346   0.0271  88.4894 0000423  40.7853  59.5287  1.00270556  4989
